{
  "links" : {
    "next" : "https://api.nasa.gov/neo/rest/v1/feed?start_date=1999-04-09&end_date=1999-04-09&detailed=true&api_key=t0TVs3DtDT2H8Oy2Zy8m2eVrNsAVKAexjcZXUckd",
    "prev" : "https://api.nasa.gov/neo/rest/v1/feed?start_date=1999-04-07&end_date=1999-04-07&detailed=true&api_key=t0TVs3DtDT2H8Oy2Zy8m2eVrNsAVKAexjcZXUckd",
    "self" : "https://api.nasa.gov/neo/rest/v1/feed?start_date=1999-04-08&end_date=1999-04-08&detailed=true&api_key=t0TVs3DtDT2H8Oy2Zy8m2eVrNsAVKAexjcZXUckd"
  },
  "element_count" : 9,
  "near_earth_objects" : {
    "1999-04-08" : [ {
      "links" : {
        "self" : "https://api.nasa.gov/neo/rest/v1/neo/3521439?api_key=t0TVs3DtDT2H8Oy2Zy8m2eVrNsAVKAexjcZXUckd"
      },
      "neo_reference_id" : "3521439",
      "name" : "(2010 JN71)",
      "nasa_jpl_url" : "http://ssd.jpl.nasa.gov/sbdb.cgi?sstr=3521439",
      "absolute_magnitude_h" : 21.4,
      "estimated_diameter" : {
        "kilometers" : {
          "estimated_diameter_min" : 0.1394938229,
          "estimated_diameter_max" : 0.3119176705
        },
        "meters" : {
          "estimated_diameter_min" : 139.4938229344,
          "estimated_diameter_max" : 311.9176705226
        },
        "miles" : {
          "estimated_diameter_min" : 0.0866774163,
          "estimated_diameter_max" : 0.1938165949
        },
        "feet" : {
          "estimated_diameter_min" : 457.6569140361,
          "estimated_diameter_max" : 1023.3519701574
        }
      },
      "is_potentially_hazardous_asteroid" : true,
      "close_approach_data" : [ {
        "close_approach_date" : "1999-04-08",
        "epoch_date_close_approach" : 923554800000,
        "relative_velocity" : {
          "kilometers_per_second" : "21.7715302728",
          "kilometers_per_hour" : "78377.5089821545",
          "miles_per_hour" : "48700.7360672726"
        },
        "miss_distance" : {
          "astronomical" : "0.4223383893",
          "lunar" : "164.289642334",
          "kilometers" : "63180924",
          "miles" : "39258808"
        },
        "orbiting_body" : "Earth"
      } ],
      "orbital_data" : {
        "orbit_id" : "30",
        "orbit_determination_date" : "2017-04-06 08:57:32",
        "orbit_uncertainty" : "4",
        "minimum_orbit_intersection" : ".0301536",
        "jupiter_tisserand_invariant" : "3.225",
        "epoch_osculation" : "2458000.5",
        "eccentricity" : ".5890104509181365",
        "semi_major_axis" : "2.38338455045401",
        "inclination" : "17.72463542097761",
        "ascending_node_longitude" : "62.45369493087398",
        "orbital_period" : "1343.970099315442",
        "perihelion_distance" : ".9795461416797735",
        "perihelion_argument" : "185.5527088047169",
        "aphelion_distance" : "3.787222959228247",
        "perihelion_time" : "2458040.570910809232",
        "mean_anomaly" : "349.2664815246477",
        "mean_motion" : ".2678631021503886",
        "equinox" : "J2000"
      }
    }, {
      "links" : {
        "self" : "https://api.nasa.gov/neo/rest/v1/neo/3728574?api_key=t0TVs3DtDT2H8Oy2Zy8m2eVrNsAVKAexjcZXUckd"
      },
      "neo_reference_id" : "3728574",
      "name" : "(2015 SZ2)",
      "nasa_jpl_url" : "http://ssd.jpl.nasa.gov/sbdb.cgi?sstr=3728574",
      "absolute_magnitude_h" : 25.4,
      "estimated_diameter" : {
        "kilometers" : {
          "estimated_diameter_min" : 0.022108281,
          "estimated_diameter_max" : 0.0494356193
        },
        "meters" : {
          "estimated_diameter_min" : 22.1082810359,
          "estimated_diameter_max" : 49.435619262
        },
        "miles" : {
          "estimated_diameter_min" : 0.0137374447,
          "estimated_diameter_max" : 0.0307178602
        },
        "feet" : {
          "estimated_diameter_min" : 72.5337327539,
          "estimated_diameter_max" : 162.1903570994
        }
      },
      "is_potentially_hazardous_asteroid" : false,
      "close_approach_data" : [ {
        "close_approach_date" : "1999-04-08",
        "epoch_date_close_approach" : 923554800000,
        "relative_velocity" : {
          "kilometers_per_second" : "7.0395313287",
          "kilometers_per_hour" : "25342.312783166",
          "miles_per_hour" : "15746.7276290733"
        },
        "miss_distance" : {
          "astronomical" : "0.3885754066",
          "lunar" : "151.1558380127",
          "kilometers" : "58130052",
          "miles" : "36120340"
        },
        "orbiting_body" : "Earth"
      } ],
      "orbital_data" : {
        "orbit_id" : "21",
        "orbit_determination_date" : "2017-04-06 08:31:47",
        "orbit_uncertainty" : "3",
        "minimum_orbit_intersection" : ".00340549",
        "jupiter_tisserand_invariant" : "5.262",
        "epoch_osculation" : "2458000.5",
        "eccentricity" : ".2414735678313192",
        "semi_major_axis" : "1.200965093352444",
        "inclination" : "4.293687954384653",
        "ascending_node_longitude" : "184.1117586334794",
        "orbital_period" : "480.7220065532712",
        "perihelion_distance" : ".9109637674197556",
        "perihelion_argument" : "240.424437574643",
        "aphelion_distance" : "1.490966419285132",
        "perihelion_time" : "2457825.567378027079",
        "mean_anomaly" : "131.0024152249269",
        "mean_motion" : ".7488735591307002",
        "equinox" : "J2000"
      }
    }, {
      "links" : {
        "self" : "https://api.nasa.gov/neo/rest/v1/neo/3748491?api_key=t0TVs3DtDT2H8Oy2Zy8m2eVrNsAVKAexjcZXUckd"
      },
      "neo_reference_id" : "3748491",
      "name" : "(2016 FZ13)",
      "nasa_jpl_url" : "http://ssd.jpl.nasa.gov/sbdb.cgi?sstr=3748491",
      "absolute_magnitude_h" : 28.3,
      "estimated_diameter" : {
        "kilometers" : {
          "estimated_diameter_min" : 0.0058150704,
          "estimated_diameter_max" : 0.0130028927
        },
        "meters" : {
          "estimated_diameter_min" : 5.8150703965,
          "estimated_diameter_max" : 13.0028927004
        },
        "miles" : {
          "estimated_diameter_min" : 0.0036133161,
          "estimated_diameter_max" : 0.0080796204
        },
        "feet" : {
          "estimated_diameter_min" : 19.0783155595,
          "estimated_diameter_max" : 42.6604104873
        }
      },
      "is_potentially_hazardous_asteroid" : false,
      "close_approach_data" : [ {
        "close_approach_date" : "1999-04-08",
        "epoch_date_close_approach" : 923554800000,
        "relative_velocity" : {
          "kilometers_per_second" : "17.2079315894",
          "kilometers_per_hour" : "61948.5537217349",
          "miles_per_hour" : "38492.4221722635"
        },
        "miss_distance" : {
          "astronomical" : "0.4367126187",
          "lunar" : "169.8812103271",
          "kilometers" : "65331280",
          "miles" : "40594976"
        },
        "orbiting_body" : "Earth"
      } ],
      "orbital_data" : {
        "orbit_id" : "6",
        "orbit_determination_date" : "2017-04-06 08:27:04",
        "orbit_uncertainty" : "5",
        "minimum_orbit_intersection" : ".00287885",
        "jupiter_tisserand_invariant" : "6.350",
        "epoch_osculation" : "2458000.5",
        "eccentricity" : ".1500440481200807",
        "semi_major_axis" : ".9443167844455939",
        "inclination" : "4.178320885585729",
        "ascending_node_longitude" : "183.8807483291052",
        "orbital_period" : "335.1776026349116",
        "perihelion_distance" : ".8026276713996393",
        "perihelion_argument" : "238.5916642560412",
        "aphelion_distance" : "1.086005897491548",
        "perihelion_time" : "2458043.687276256392",
        "mean_anomaly" : "313.6143843440638",
        "mean_motion" : "1.074057446470031",
        "equinox" : "J2000"
      }
    } ]
  }
}